[{"OBJECT_NAME":"STARLINK-31406","OBJECT_ID":"2024-036V","EPOCH":"2026-03-09T09:28:19.152768","MEAN_MOTION":15.30195857,"ECCENTRICITY":0.0001213,"INCLINATION":53.1595,"RA_OF_ASC_NODE":66.3225,"ARG_OF_PERICENTER":92.8597,"MEAN_ANOMALY":267.2543,"EPHEMERIS_TYPE":0,"CLASSIFICATION_TYPE":"U","NORAD_CAT_ID":59017,"ELEMENT_SET_NO":999,"REV_AT_EPOCH":11546,"BSTAR":-6.4127324e-5,"MEAN_MOTION_DOT":-2.258e-5,"MEAN_MOTION_DDOT":0},{"OBJECT_NAME":"TEVEL2-1","OBJECT_ID":"2025-052H","EPOCH":"2026-03-09T15:32:51.927072","MEAN_MOTION":15.30341923,"ECCENTRICITY":0.0004767,"INCLINATION":97.3991,"RA_OF_ASC_NODE":324.7682,"ARG_OF_PERICENTER":104.8919,"MEAN_ANOMALY":255.2849,"EPHEMERIS_TYPE":0,"CLASSIFICATION_TYPE":"U","NORAD_CAT_ID":63217,"ELEMENT_SET_NO":999,"REV_AT_EPOCH":5485,"BSTAR":0.000706,"MEAN_MOTION_DOT":0.00020683,"MEAN_MOTION_DDOT":0}]
